*******************************************************************************
Ephemeris / WWW_USER Fri Mar  7 10:16:52 2025 Pasadena, USA      / Horizons    
*******************************************************************************
Target body name: (2018 PK21)                     {source: JPL#33}
Center body name: Earth (399)                     {source: DE441}
Center-site name: Mauna Kea
*******************************************************************************
Start time      : A.D. 2019-Jan-16 04:13:00.0000 UT      
Stop  time      : A.D. 2019-Jan-16 16:49:00.0000 UT      
Step-size       : 1 minutes
*******************************************************************************
Target pole/equ : undefined
Target radii    : undefined                                                    
Center geodetic : 204.5278, 19.8260847, 4.21024   {E-lon(deg),Lat(deg),Alt(km)}
Center cylindric: 204.5278, 6006.35451, 2151.0229 {E-lon(deg),Dxy(km),Dz(km)}
Center pole/equ : ITRF93                          {East-longitude positive}
Center radii    : 6378.137, 6378.137, 6356.752 km {Equator_a, b, pole_c}       
Target primary  : Sun
Vis. interferer : MOON (R_eq= 1737.400) km        {source: DE441}
Rel. light bend : Sun                             {source: DE441}
Rel. lght bnd GM: 1.3271E+11 km^3/s^2                                          
Small-body perts: Yes                             {source: SB441-N16}
Atmos refraction: NO (AIRLESS)
RA format       : HMS
Time format     : CAL 
Calendar mode   : Mixed Julian/Gregorian
RTS-only print  : NO       
EOP file        : eop.250306.p250602                                           
EOP coverage    : DATA-BASED 1962-JAN-20 TO 2025-MAR-06. PREDICTS-> 2025-JUN-01
Units conversion: 1 au= 149597870.700 km, c= 299792.458 km/s, 1 day= 86400.0 s 
Table cut-offs 1: Elevation (-90.0deg=NO ),Airmass (>38.000=NO), Daylight (YES)
Table cut-offs 2: Solar elongation (  0.0,180.0=NO ),Local Hour Angle( 0.0=NO )
Table cut-offs 3: RA/DEC angular rate (     0.0=NO )                           
*******************************************************************************
Initial IAU76/J2000 heliocentric ecliptic osculating elements (au, days, deg.):
  EPOCH=  2458678.5 ! 2019-Jul-14.00 (TDB)         Residual RMS= .18538        
   EC= .08059571149071894  QR= .9080173735553244   TP= 2458556.3979336754      
   OM= 305.3714803879685   W=  224.0867446587677   IN= 1.196977749955446       
  Equivalent ICRF heliocentric cartesian coordinates (au, au/d):
   X= 5.084898226316541E-01  Y=-8.259633024476691E-01  Z=-3.605371187528673E-01
  VX= 1.486595997640644E-02 VY= 6.429710771461657E-03 VZ= 3.158008025433540E-03
Asteroid physical parameters (km, seconds, rotational period in hours):        
   GM= n.a.                RAD= n.a.               ROTPER= n.a.                
   H= 25.88                G= .150                 B-V= n.a.                   
                           ALBEDO= n.a.            STYP= n.a.                  
*******************************************************************************
 Date__(UT)__HR:MN     R.A._________(ICRF)_________DEC
******************************************************
$$SOE
 2019-Jan-16 14:28     00 33 11.544170 +05 54 16.23797
 2019-Jan-16 14:29     00 33 11.654099 +05 54 16.58750
 2019-Jan-16 14:30     00 33 11.764039 +05 54 16.93711
 2019-Jan-16 14:31     00 33 11.873989 +05 54 17.28681
 2019-Jan-16 14:32     00 33 11.983949 +05 54 17.63658
 2019-Jan-16 14:33     00 33 12.093919 +05 54 17.98644
 2019-Jan-16 14:34     00 33 12.203899 +05 54 18.33637
 2019-Jan-16 14:35     00 33 12.313887 +05 54 18.68639
 2019-Jan-16 14:36     00 33 12.423885 +05 54 19.03648
 2019-Jan-16 14:37     00 33 12.533891 +05 54 19.38666
 2019-Jan-16 14:38     00 33 12.643906 +05 54 19.73692
 2019-Jan-16 14:39     00 33 12.753929 +05 54 20.08726
 2019-Jan-16 14:40     00 33 12.863960 +05 54 20.43768
 2019-Jan-16 14:41     00 33 12.973999 +05 54 20.78818
 2019-Jan-16 14:42     00 33 13.084046 +05 54 21.13876
 2019-Jan-16 14:43     00 33 13.194100 +05 54 21.48943
 2019-Jan-16 14:44     00 33 13.304161 +05 54 21.84017
 2019-Jan-16 14:45     00 33 13.414228 +05 54 22.19100
 2019-Jan-16 14:46     00 33 13.524303 +05 54 22.54190
 2019-Jan-16 14:47     00 33 13.634383 +05 54 22.89289
 2019-Jan-16 14:48     00 33 13.744470 +05 54 23.24396
 2019-Jan-16 14:49     00 33 13.854562 +05 54 23.59511
 2019-Jan-16 14:50     00 33 13.964661 +05 54 23.94634
 2019-Jan-16 14:51     00 33 14.074764 +05 54 24.29766
 2019-Jan-16 14:52     00 33 14.184873 +05 54 24.64905
 2019-Jan-16 14:53     00 33 14.294986 +05 54 25.00053
 2019-Jan-16 14:54     00 33 14.405104 +05 54 25.35209
 2019-Jan-16 14:55     00 33 14.515227 +05 54 25.70373
 2019-Jan-16 14:56     00 33 14.625353 +05 54 26.05545
 2019-Jan-16 14:57     00 33 14.735484 +05 54 26.40726
 2019-Jan-16 14:58     00 33 14.845618 +05 54 26.75914
 2019-Jan-16 14:59     00 33 14.955755 +05 54 27.11111
 2019-Jan-16 15:00     00 33 15.065896 +05 54 27.46316
 2019-Jan-16 15:01     00 33 15.176040 +05 54 27.81529
 2019-Jan-16 15:02     00 33 15.286186 +05 54 28.16751
 2019-Jan-16 15:03     00 33 15.396335 +05 54 28.51980
 2019-Jan-16 15:04     00 33 15.506485 +05 54 28.87218
 2019-Jan-16 15:05     00 33 15.616638 +05 54 29.22464
 2019-Jan-16 15:06     00 33 15.726793 +05 54 29.57718
 2019-Jan-16 15:07     00 33 15.836949 +05 54 29.92980
 2019-Jan-16 15:08     00 33 15.947106 +05 54 30.28251
 2019-Jan-16 15:09     00 33 16.057264 +05 54 30.63529
 2019-Jan-16 15:10     00 33 16.167422 +05 54 30.98816
 2019-Jan-16 15:11     00 33 16.277582 +05 54 31.34111
 2019-Jan-16 15:12     00 33 16.387741 +05 54 31.69415
 2019-Jan-16 15:13     00 33 16.497900 +05 54 32.04726
 2019-Jan-16 15:14     00 33 16.608059 +05 54 32.40046
 2019-Jan-16 15:15     00 33 16.718218 +05 54 32.75374
 2019-Jan-16 15:16     00 33 16.828376 +05 54 33.10710
 2019-Jan-16 15:17     00 33 16.938533 +05 54 33.46054
 2019-Jan-16 15:18     00 33 17.048688 +05 54 33.81407
 2019-Jan-16 15:19     00 33 17.158842 +05 54 34.16768
 2019-Jan-16 15:20     00 33 17.268994 +05 54 34.52137
 2019-Jan-16 15:21     00 33 17.379145 +05 54 34.87514
 2019-Jan-16 15:22     00 33 17.489293 +05 54 35.22899
 2019-Jan-16 15:23     00 33 17.599438 +05 54 35.58293
 2019-Jan-16 15:24     00 33 17.709581 +05 54 35.93694
 2019-Jan-16 15:25     00 33 17.819721 +05 54 36.29104
 2019-Jan-16 15:26     00 33 17.929857 +05 54 36.64523
 2019-Jan-16 15:27     00 33 18.039991 +05 54 36.99949
 2019-Jan-16 15:28     00 33 18.150120 +05 54 37.35383
 2019-Jan-16 15:29     00 33 18.260245 +05 54 37.70826
 2019-Jan-16 15:30     00 33 18.370367 +05 54 38.06277
 2019-Jan-16 15:31     00 33 18.480484 +05 54 38.41736
 2019-Jan-16 15:32     00 33 18.590596 +05 54 38.77204
 2019-Jan-16 15:33     00 33 18.700703 +05 54 39.12679
 2019-Jan-16 15:34     00 33 18.810805 +05 54 39.48163
 2019-Jan-16 15:35     00 33 18.920901 +05 54 39.83655
 2019-Jan-16 15:36     00 33 19.030992 +05 54 40.19155
 2019-Jan-16 15:37     00 33 19.141077 +05 54 40.54663
 2019-Jan-16 15:38     00 33 19.251156 +05 54 40.90179
 2019-Jan-16 15:39     00 33 19.361229 +05 54 41.25704
 2019-Jan-16 15:40     00 33 19.471294 +05 54 41.61236
 2019-Jan-16 15:41     00 33 19.581353 +05 54 41.96777
 2019-Jan-16 15:42     00 33 19.691405 +05 54 42.32326
 2019-Jan-16 15:43 A   00 33 19.801449 +05 54 42.67883
 2019-Jan-16 15:44 A   00 33 19.911486 +05 54 43.03449
 2019-Jan-16 15:45 A   00 33 20.021515 +05 54 43.39022
 2019-Jan-16 15:46 A   00 33 20.131536 +05 54 43.74604
 2019-Jan-16 15:47 A   00 33 20.241548 +05 54 44.10193
 2019-Jan-16 15:48 A   00 33 20.351552 +05 54 44.45791
 2019-Jan-16 15:49 A   00 33 20.461547 +05 54 44.81397
 2019-Jan-16 15:50 A   00 33 20.571533 +05 54 45.17011
 2019-Jan-16 15:51 A   00 33 20.681510 +05 54 45.52633
 2019-Jan-16 15:52 A   00 33 20.791477 +05 54 45.88264
 2019-Jan-16 15:53 A   00 33 20.901434 +05 54 46.23902
 2019-Jan-16 15:54 A   00 33 21.011381 +05 54 46.59548
 2019-Jan-16 15:55 A   00 33 21.121318 +05 54 46.95203
 2019-Jan-16 15:56 A   00 33 21.231244 +05 54 47.30865
 2019-Jan-16 15:57 A   00 33 21.341160 +05 54 47.66536
 2019-Jan-16 15:58 A   00 33 21.451065 +05 54 48.02215
 2019-Jan-16 15:59 A   00 33 21.560958 +05 54 48.37902
 2019-Jan-16 16:00 A   00 33 21.670840 +05 54 48.73596
 2019-Jan-16 16:01 A   00 33 21.780710 +05 54 49.09299
 2019-Jan-16 16:02 A   00 33 21.890568 +05 54 49.45010
 2019-Jan-16 16:03 A   00 33 22.000414 +05 54 49.80729
 2019-Jan-16 16:04 A   00 33 22.110247 +05 54 50.16456
 2019-Jan-16 16:05 A   00 33 22.220068 +05 54 50.52191
 2019-Jan-16 16:06 A   00 33 22.329876 +05 54 50.87934
 2019-Jan-16 16:07 A   00 33 22.439670 +05 54 51.23685
 2019-Jan-16 16:08 A   00 33 22.549452 +05 54 51.59444
 2019-Jan-16 16:09 N   00 33 22.659219 +05 54 51.95211
 2019-Jan-16 16:10 N   00 33 22.768973 +05 54 52.30985
 2019-Jan-16 16:11 N   00 33 22.878712 +05 54 52.66768
 2019-Jan-16 16:12 N   00 33 22.988437 +05 54 53.02559
 2019-Jan-16 16:13 N   00 33 23.098148 +05 54 53.38358
 2019-Jan-16 16:14 N   00 33 23.207844 +05 54 53.74164
 2019-Jan-16 16:15 N   00 33 23.317524 +05 54 54.09979
 2019-Jan-16 16:16 N   00 33 23.427190 +05 54 54.45801
 2019-Jan-16 16:17 N   00 33 23.536839 +05 54 54.81632
 2019-Jan-16 16:18 N   00 33 23.646473 +05 54 55.17470
 2019-Jan-16 16:19 N   00 33 23.756091 +05 54 55.53316
 2019-Jan-16 16:20 N   00 33 23.865693 +05 54 55.89170
 2019-Jan-16 16:21 N   00 33 23.975278 +05 54 56.25032
 2019-Jan-16 16:22 N   00 33 24.084847 +05 54 56.60902
 2019-Jan-16 16:23 N   00 33 24.194398 +05 54 56.96779
 2019-Jan-16 16:24 N   00 33 24.303933 +05 54 57.32665
 2019-Jan-16 16:25 N   00 33 24.413449 +05 54 57.68558
 2019-Jan-16 16:26 N   00 33 24.522949 +05 54 58.04459
 2019-Jan-16 16:27 N   00 33 24.632430 +05 54 58.40368
 2019-Jan-16 16:28 N   00 33 24.741893 +05 54 58.76284
 2019-Jan-16 16:29 N   00 33 24.851338 +05 54 59.12209
 2019-Jan-16 16:30 N   00 33 24.960764 +05 54 59.48141
